OBJECT_NAME,OBJECT_ID,EPOCH,MEAN_MOTION,ECCENTRICITY,INCLINATION,RA_OF_ASC_NODE,ARG_OF_PERICENTER,MEAN_ANOMALY,EPHEMERIS_TYPE,CLASSIFICATION_TYPE,NORAD_CAT_ID,ELEMENT_SET_NO,REV_AT_EPOCH,BSTAR,MEAN_MOTION_DOT,MEAN_MOTION_DDOT
IRIDIUM 135,2017-083A,2026-06-05T20:22:39.088128,14.34218253,.0002197,86.3963,326.7578,90.2716,269.8731,0,U,43070,999,44252,.91765E-5,.45E-6,0
IRIDIUM 138,2017-083B,2026-06-05T10:56:23.205696,14.34216574,.00024172,86.3968,326.6153,88.8838,271.2635,0,U,43071,999,44245,.36067943E-4,.121E-5,0
IRIDIUM 116,2017-083C,2026-06-05T20:13:30.783360,14.34218534,.0001876,86.3957,326.7458,92.9382,267.2028,0,U,43072,999,44254,.10915E-4,.5E-6,0
IRIDIUM 130,2017-083D,2026-06-05T11:05:31.101792,14.34218631,.00020179,86.3962,327.1795,87.6740,272.4687,0,U,43073,999,44243,.23229466E-3,.67E-5,0
IRIDIUM 151,2017-083E,2026-06-05T20:31:47.152704,14.34217401,.0002097,86.3956,326.7979,90.7639,269.3797,0,U,43074,999,44251,.29055E-4,.101E-5,0
IRIDIUM 134,2017-083F,2026-06-05T11:23:47.182560,14.34218262,.00020933,86.3961,326.9653,88.4812,271.6624,0,U,43075,999,44242,.25242115E-4,.9E-6,0
IRIDIUM 137,2017-083G,2026-06-05T20:04:23.065248,14.34217653,.0001899,86.3964,326.9066,101.5125,258.6284,0,U,43076,999,44254,.27595E-4,.97E-6,0
IRIDIUM 141,2017-083H,2026-06-05T19:55:15.178656,14.34217136,.000208,86.3953,326.7405,90.4468,269.6966,0,U,43077,999,44254,-.22785E-4,-.44E-6,0
IRIDIUM 153,2017-083J,2026-06-05T20:26:51.478080,14.34217678,.0002361,86.3952,295.2110,89.9713,270.1753,0,U,43078,999,44365,.68605E-5,.39E-6,0
IRIDIUM 131,2017-083K,2026-06-05T11:14:39.123168,14.34217452,.00020557,86.3957,327.0769,91.8386,268.3046,0,U,43079,999,44242,-.31234252E-4,-.68E-6,0
IRIDIUM 144,2018-030A,2026-06-05T20:35:59.343936,14.34217688,.0002026,86.3950,295.1383,96.8143,263.3283,0,U,43249,999,42851,.36597E-4,.122E-5,0
IRIDIUM 149,2018-030B,2026-06-05T20:45:07.462944,14.34217622,.0002261,86.3950,295.1025,93.0057,267.1397,0,U,43250,999,42853,.73924E-5,.4E-6,0
IRIDIUM 157,2018-030C,2026-06-05T19:32:03.424992,14.34217465,.00020749,86.3947,295.1768,93.2044,266.9389,0,U,43251,999,42850,-.3960089E-5,.9E-7,0
IRIDIUM 140,2018-030D,2026-06-05T19:59:27.426048,14.34217655,.0002154,86.3951,295.1812,92.1364,268.0078,0,U,43252,999,42856,.65666E-5,.38E-6,0
IRIDIUM 145,2018-030E,2026-06-05T19:41:11.302944,14.34217357,.0001849,86.3952,295.1590,95.9800,264.1607,0,U,43253,999,42849,.23133E-4,.85E-6,0
IRIDIUM 146,2018-030F,2026-06-05T19:13:47.401248,14.34217450,.00019552,86.3947,295.1793,94.3296,265.8123,0,U,43254,999,42850,-.4716294E-5,.7E-7,0
IRIDIUM 148,2018-030G,2026-06-05T20:08:35.342880,14.34217578,.0002063,86.3948,295.2062,96.8896,263.2534,0,U,43255,999,42854,-.67242E-5,.1E-7,0
IRIDIUM 142,2018-030H,2026-06-05T19:22:55.386336,14.34217525,.00020057,86.3946,295.1085,94.6601,265.4824,0,U,43256,999,42850,.5264476E-5,.35E-6,0
IRIDIUM 150,2018-030J,2026-06-05T20:17:43.448064,14.34217562,.0002153,86.3952,295.2087,91.7331,268.4111,0,U,43257,999,42853,.51026E-5,.34E-6,0
IRIDIUM 143,2018-030K,2026-06-05T19:50:19.403808,14.34217454,.0001969,86.3950,295.3090,93.9979,266.1442,0,U,43258,999,42846,-.25092E-5,.13E-6,0
IRIDIUM 161,2018-047C,2026-06-05T20:50:00.530016,14.43283723,.0002464,86.4479,93.2035,88.8767,271.2716,0,U,43478,999,42350,.10183E-3,.363E-5,0
IRIDIUM 152,2018-047D,2026-06-05T20:51:30.303072,14.34217826,.0002372,86.3954,93.0640,84.9636,275.1830,0,U,43479,999,42086,.12829E-4,.56E-6,0
IRIDIUM 147,2018-047E,2026-06-05T21:00:38.200896,14.34216935,.0002034,86.3955,93.0662,83.9171,276.2256,0,U,43480,999,42086,-.75459E-5,-.1E-7,0
IRIDIUM 110,2018-047F,2026-06-05T19:29:18.310272,14.34217865,.00025763,86.3956,93.1843,88.4403,271.7087,0,U,43481,999,42084,.10113683E-4,.48E-6,0
IRIDIUM 162,2018-047G,2026-06-05T20:40:56.464032,14.43275475,.0002376,86.4476,93.0974,83.5923,276.5548,0,U,43482,999,42349,.1187E-3,.419E-5,0
IRIDIUM 160,2018-061A,2026-06-05T23:12:42.467616,14.34218037,.0002264,86.3968,61.4881,87.1223,273.0232,0,U,43569,999,41176,.21043E-4,.79E-6,0
IRIDIUM 166,2018-061B,2026-06-05T23:49:14.477088,14.34217681,.0002085,86.3965,61.4280,83.6645,276.4788,0,U,43570,999,41179,.15418E-5,.24E-6,0
IRIDIUM 158,2018-061C,2026-06-05T19:42:38.418336,14.34216947,.0002309,86.3967,61.5097,84.2636,275.8823,0,U,43571,999,41173,.33251E-4,.113E-5,0
IRIDIUM 165,2018-061D,2026-06-05T23:40:05.816352,14.34221009,.0002086,86.3969,61.4870,84.2602,275.8832,0,U,43572,999,41178,.94522E-4,.285E-5,0
IRIDIUM 155,2018-061E,2026-06-05T19:24:22.487904,14.34217755,.0002184,86.3963,61.4305,82.4557,277.6887,0,U,43573,999,41172,.10052388E-4,.48E-6,0
IRIDIUM 154,2018-061F,2026-06-05T10:34:38.455968,14.34217516,.0002046,86.3969,61.7178,86.6220,273.5210,0,U,43574,999,41172,.23920135E-4,.87E-6,0
